STARLINK-32093          
1 59701U 24086V   25125.01533640  .00002594  00000+0  10374-3 0  9996
2 59701  43.0023   3.1878 0001408 293.4840  66.5863 15.27583511 56829
STARLINK-32087          
1 59702U 24086W   25125.00378850 -.00003097  00000+0 -10305-3 0  9991
2 59702  43.0015   3.1017 0000810 295.1672  64.9095 15.27586152 56669
STARLINK-32086          
1 59703U 24086X   25124.98579756  .00002168  00000+0  88319-4 0  9993
2 59703  43.0038   2.9725 0001570 277.3929  82.6745 15.27571859 56767
STARLINK-32098          
1 59704U 24086Y   25125.02563747 -.00001675  00000+0 -51365-4 0  9998
2 59704  42.9993   3.2686 0000935 267.8582  92.2162 15.27569730 56764
ZHIHUI TIANWANG-1 01A   
1 59705U 24087A   25123.79745397 -.00000011  00000+0  00000+0 0  9992
2 59705  53.1268 187.4460 0014859 202.8240 157.1736  2.00560082  7097
ZHIHUI TIANWANG-1 01B   
1 59706U 24087B   25123.80136576 -.00000011  00000+0  00000+0 0  9998
2 59706  53.1266 187.4442 0014087 202.8730 157.1279  2.00561160  6744
STARLINK-11107 [DTC]    
1 59708U 24088A   25125.19331586  .00000409  00000+0  82433-5 0  9999
2 59708  53.1597  46.7446 0001339  81.7931 278.3238 15.69693626 57713
STARLINK-11088 [DTC]    
1 59709U 24088B   25125.05625416 -.00018251  00000+0 -14613-3 0  9992
2 59709  53.1573  48.0334 0001233 108.7777 251.3374 15.69706618 57695
STARLINK-11092 [DTC]    
1 59710U 24088C   25124.92401463  .00004781  00000+0  44305-4 0  9996
2 59710  53.1574  48.6251 0001218  73.0445 287.0707 15.69707817 57778
STARLINK-11082 [DTC]    
1 59711U 24088D   25125.17378742  .00001005  00000+0  13152-4 0  9990
2 59711  53.1574  47.3400 0001148  89.1362 270.9788 15.69705271 57704
STARLINK-11108 [DTC]    
1 59712U 24088E   25125.16888625 -.00000477  00000+0  91961-6 0  9995
2 59712  53.1588  47.3049 0001001 113.5928 246.5195 15.69695408 57708
STARLINK-11100 [DTC]    
1 59713U 24088F   25125.16397352  .00001765  00000+0  19434-4 0  9991
2 59713  53.1588  47.2755 0001122  89.7184 270.3963 15.69699722 57705
STARLINK-11094 [DTC]    
1 59714U 24088G   25125.15906997 -.00000773  00000+0 -15193-5 0  9991
2 59714  53.1574  47.2477 0001152  56.8148 303.2980 15.69706415 57668
STARLINK-11101 [DTC]    
1 59715U 24088H   25125.21292777  .00001846  00000+0  20096-4 0  9990
2 59715  53.1576  46.8618 0001213  69.9690 290.1459 15.69710199 57702
STARLINK-11099 [DTC]    
1 59716U 24088J   25124.51746428  .00000900  00000+0  12286-4 0  9992
2 59716  53.1592  50.3474 0001264  97.0208 263.0954 15.69711235 57604
STARLINK-11084 [DTC]    
1 59717U 24088K   25125.08068537 -.00001015  00000+0 -35230-5 0  9999
2 59717  53.1594  47.4544 0001048  54.3738 305.7377 15.69702439 57683
STARLINK-11103 [DTC]    
1 59718U 24088L   25124.50275118  .00003694  00000+0  35334-4 0  9998
2 59718  53.1571  50.2473 0001278  80.2702 279.8460 15.69713608 57590
STARLINK-11096 [DTC]    
1 59719U 24088M   25125.18851234 -.00000649  00000+0 -49700-6 0  9996
2 59719  53.1591  47.4323 0001519  64.8860 295.2315 15.69689619 57692
STARLINK-11095 [DTC]    
1 59720U 24088N   25124.81618930  .00001397  00000+0  16384-4 0  9990
2 59720  53.1586  48.6429 0000915  84.8015 275.3107 15.69712961 57764
STARLINK-31834          
1 59721U 24088P   25125.03911677 -.00000860  00000+0 -16933-4 0  9996
2 59721  53.1594 133.7532 0001234  85.5888 274.5254 15.30188373 56345
STARLINK-31843          
1 59722U 24088Q   25125.04966459  .00000915  00000+0  43004-4 0  9994
2 59722  53.1597 133.8170 0001073  76.3403 283.7717 15.30196261 56341
STARLINK-31766          
1 59723U 24088R   25124.96324353  .00002838  00000+0  10794-3 0  9991
2 59723  53.1596 133.9903 0001521  70.4833 289.6332 15.30192321 56336
STARLINK-31836          
1 59724U 24088S   25125.03277866  .00001903  00000+0  76396-4 0  9990
2 59724  53.1599 133.7129 0001270  79.9606 280.1538 15.30186593 56441
STARLINK-31820          
1 59725U 24088T   25124.32382238 -.00001121  00000+0 -25729-4 0  9990
2 59725  53.1592 137.1052 0001257  28.2550 331.8519 15.30188482 56316
STARLINK-31642          
1 59726U 24088U   25124.71992968  .00001007  00000+0  46126-4 0  9996
2 59726  53.1601 135.3163 0001285  97.6616 262.4531 15.30193307 56376
STARLINK-31827          
1 59727U 24088V   25125.05284891  .00014660  00000+0  50671-3 0  9992
2 59727  53.1600 133.8371 0000968 104.2749 255.8359 15.30161842 56529
SHIYAN-23 (SY-23)       
1 59728U 24089A   25124.96766029  .00000880  00000+0  11583-3 0  9999
2 59728  97.7692 130.9426 0006952 193.8307 166.2717 14.82557589 53216
STARLINK-31472          
1 59730U 24090A   25124.69478093  .00000492  00000+0  27401-4 0  9991
2 59730  43.0005 128.5138 0001340 251.3431 108.7275 15.27561542 56181
STARLINK-31817          
1 59731U 24090B   25125.19987526  .00000596  00000+0  31171-4 0  9998
2 59731  43.0017 125.4226 0001271 271.0428  89.0278 15.27593128 56287
STARLINK-31841          
1 59732U 24090C   25124.60993826 -.00000698  00000+0 -94607-5 0  9993
2 59732  43.0038  93.7531 0001238 275.6638  84.4078 15.40693655 56573
STARLINK-31833          
1 59733U 24090D   25125.03584369 -.00000361  00000+0 -36093-5 0  9992
2 59733  43.0015 126.7715 0000861 272.9177  87.1576 15.27570114 56188
STARLINK-31849          
1 59734U 24090E   25125.02525227  .00003369  00000+0  13194-3 0  9994
2 59734  42.9993 119.7772 0000940 274.0471  86.0274 15.27568761 56329
STARLINK-31661          
1 59735U 24090F   25124.68996114  .00002143  00000+0  85277-4 0  9994
2 59735  43.0001 121.5599 0001216 273.6690  86.4023 15.28409660 56267
STARLINK-31707          
1 59736U 24090G   25124.29860460 -.00001181  00000+0 -33412-4 0  9993
2 59736  43.0014 130.6971 0001063 261.6129  98.4602 15.27571430 56126
STARLINK-31821          
1 59737U 24090H   25125.16019083  .00003400  00000+0  13302-3 0  9997
2 59737  42.9996 125.9824 0001297 280.6851  79.3855 15.27577252 56205
STARLINK-31819          
1 59738U 24090J   25124.69863155  .00002470  00000+0  99323-4 0  9996
2 59738  43.0007 128.5404 0001071 271.7091  88.3638 15.27555942 56189
STARLINK-31726          
1 59739U 24090K   25124.28061041 -.00000756  00000+0 -17975-4 0  9996
2 59739  43.0011 130.5594 0001148 242.9684 117.1051 15.27574423 56120
STARLINK-31759          
1 59740U 24090L   25125.04740162 -.00003132  00000+0 -10433-3 0  9993
2 59740  43.0010 126.8572 0000731 276.3459  83.7309 15.27589400 56230
STARLINK-31818          
1 59741U 24090M   25125.17045628 -.00001126  00000+0 -31409-4 0  9991
2 59741  43.0024 126.0589 0001235 264.2900  95.7811 15.27573832 56247
STARLINK-31816          
1 59742U 24090N   25125.24999112 -.00002777  00000+0 -91506-4 0  9993
2 59742  43.0011 125.7774 0001065 265.3534  94.7196 15.27556860 56249
STARLINK-31809          
1 59743U 24090P   25124.69060600 -.00000924  00000+0 -24079-4 0  9996
2 59743  42.9991 121.5613 0000395 309.5771  50.5046 15.27572509 56264
STARLINK-31779          
1 59744U 24090Q   25124.28832287 -.00000013  00000+0  90542-5 0  9997
2 59744  43.0019 130.6168 0000988 254.9756 105.0986 15.27572087 56123
STARLINK-31805          
1 59745U 24090R   25125.19216887  .00000622  00000+0  32134-4 0  9998
2 59745  43.0031 125.3640 0001166 276.1043  83.9676 15.27574232 56267
STARLINK-31681          
1 59746U 24090S   25124.95600583 -.00000433  00000+0 -62346-5 0  9993
2 59746  42.9984 120.1145 0000720 277.2005  82.8765 15.27574434 56307
STARLINK-31636          
1 59747U 24090T   25125.01014220 -.00000656  00000+0 -14329-4 0  9993
2 59747  42.9998 126.5716 0001091 262.5825  97.4903 15.27568928 56235
STARLINK-31640          
1 59748U 24090U   25124.69992128  .00001938  00000+0  79954-4 0  9996
2 59748  43.0000 128.5444 0000648 268.9782  91.0996 15.27562576 56180
STARLINK-31677          
1 59749U 24090V   25125.04343686 -.00016144  00000+0 -57882-3 0  9998
2 59749  43.0027 126.8245 0001846 264.9483  95.1158 15.27555138 56243
STARLINK-31783          
1 59750U 24090W   25124.72433296 -.00001737  00000+0 -53623-4 0  9993
2 59750  43.0037 128.7351 0000658 287.1909  72.8870 15.27568474 56177
STARLINK-31808          
1 59751U 24090X   25125.05753750 -.00005266  00000+0 -18188-3 0  9998
2 59751  43.0071 126.0757 0001942 290.4137  69.6506 15.27591972 56241
STARLINK-31822          
1 59752U 24090Y   25124.36013263  .00001468  00000+0  62860-4 0  9995
2 59752  43.0002 130.2943 0001266 263.5619  96.5088 15.27571485 56134
STARLINK-11125 [DTC]    
1 59753U 24091A   25125.25002315  .00180324  00000+0  10345-2 0  9990
2 59753  53.1471 286.2582 0005368 301.2839 155.1905 15.77737654 57092
STARLINK-11118 [DTC]    
1 59754U 24091B   25125.17870285 -.00002985  00000+0 -19800-4 0  9996
2 59754  53.1589 287.4486 0000259  72.9180 287.1866 15.69707662 57071
STARLINK-11132 [DTC]    
1 59755U 24091C   25125.16888529 -.00000887  00000+0 -24722-5 0  9995
2 59755  53.1587 287.3800 0000667  96.0472 264.0622 15.69714159 57076
STARLINK-11131 [DTC]    
1 59756U 24091D   25124.78196348  .00002120  00000+0  22335-4 0  9991
2 59756  53.1582 289.2315 0000477  69.7631 290.3438 15.69717065 56993
STARLINK-11114 [DTC]    
1 59757U 24091E   25124.84072430  .00001959  00000+0  21005-4 0  9996
2 59757  53.1588 288.9054 0000894  74.8374 285.2743 15.69726067 57007
STARLINK-11105 [DTC]    
1 59758U 24091F   25125.15418025 -.00002555  00000+0 -16254-4 0  9991
2 59758  53.1586 287.3002 0000985  18.2482 341.8571 15.69694850 57018
STARLINK-11097 [DTC]    
1 59759U 24091G   25124.83091786 -.00000402  00000+0  15333-5 0  9993
2 59759  53.1586 288.8191 0000676  98.7954 261.3141 15.69711307 57003
STARLINK-11098 [DTC]    
1 59760U 24091H   25124.82600841 -.00000970  00000+0 -31556-5 0  9998
2 59760  53.1582 288.7850 0000483 165.5390 194.5642 15.69717708 57009
STARLINK-11117 [DTC]    
1 59761U 24091J   25124.88477483  .00000535  00000+0  92652-5 0  9998
2 59761  53.1590 288.4407 0000479  52.0475 308.0586 15.69711256 57015
